{
  "norad_id": 39430,
  "name": "GOMX-1",
  "history": [
    {
      "epoch": "2026-03-28T19:50:40.985664Z",
      "apogee_km": 754.405135192902,
      "perigee_km": 573.0420160675458,
      "latitude_deg": 8.386319979779431e-05,
      "longitude_deg": 169.42598567250693,
      "height_km": 583.6142250596281,
      "semi_major_axis_km": 7041.860575630223,
      "eccentricity": 0.0128775,
      "inclination_deg": 97.6558,
      "raan_deg": 293.3385,
      "arg_perigee_deg": 336.2393,
      "mean_anomaly_deg": 23.2901,
      "mean_motion_rev_day": 14.6916857
    },
    {
      "epoch": "2026-03-29T04:01:02.824320Z",
      "apogee_km": 754.3926905945282,
      "perigee_km": 573.0493544272249,
      "latitude_deg": -1.316010933763443e-05,
      "longitude_deg": 46.818462044426106,
      "height_km": 584.3256006873136,
      "semi_major_axis_km": 7041.858022510876,
      "eccentricity": 0.0128761,
      "inclination_deg": 97.6557,
      "raan_deg": 293.6576,
      "arg_perigee_deg": 335.1371,
      "mean_anomaly_deg": 24.3666,
      "mean_motion_rev_day": 14.69169369
    },
    {
      "epoch": "2026-03-30T04:32:08.100960Z",
      "apogee_km": 754.2790503332162,
      "perigee_km": 573.1318780473975,
      "latitude_deg": 5.898009309494935e-05,
      "longitude_deg": 38.997343123899064,
      "height_km": 586.6826071011487,
      "semi_major_axis_km": 7041.842464190307,
      "eccentricity": 0.0128622,
      "inclination_deg": 97.6556,
      "raan_deg": 294.6154,
      "arg_perigee_deg": 331.8404,
      "mean_anomaly_deg": 27.5887,
      "mean_motion_rev_day": 14.69174238
    },
    {
      "epoch": "2026-03-30T06:10:12.457632Z",
      "apogee_km": 754.2674435560739,
      "perigee_km": 573.1428137959729,
      "latitude_deg": -2.7788014918332753e-05,
      "longitude_deg": 14.475973684817946,
      "height_km": 586.8522605434075,
      "semi_major_axis_km": 7041.842128676023,
      "eccentricity": 0.0128606,
      "inclination_deg": 97.6556,
      "raan_deg": 294.6793,
      "arg_perigee_deg": 331.6226,
      "mean_anomaly_deg": 27.8016,
      "mean_motion_rev_day": 14.69174343
    },
    {
      "epoch": "2026-03-30T12:42:29.736576Z",
      "apogee_km": 754.253802221353,
      "perigee_km": 573.1364712974737,
      "latitude_deg": -5.4488949162032985e-05,
      "longitude_deg": -83.60902961401767,
      "height_km": 587.5139512947145,
      "semi_major_axis_km": 7041.8321367594135,
      "eccentricity": 0.0128601,
      "inclination_deg": 97.6553,
      "raan_deg": 294.9348,
      "arg_perigee_deg": 330.729,
      "mean_anomaly_deg": 28.6752,
      "mean_motion_rev_day": 14.6917747
    },
    {
      "epoch": "2026-03-30T19:14:47.048352Z",
      "apogee_km": 754.2359738194809,
      "perigee_km": 573.1434290862289,
      "latitude_deg": 1.2733549773931376e-05,
      "longitude_deg": 178.30561735740994,
      "height_km": 588.2008544837389,
      "semi_major_axis_km": 7041.826701452855,
      "eccentricity": 0.01285835,
      "inclination_deg": 97.6554,
      "raan_deg": 295.1901,
      "arg_perigee_deg": 329.8429,
      "mean_anomaly_deg": 29.5418,
      "mean_motion_rev_day": 14.69179171
    },
    {
      "epoch": "2026-03-31T19:45:51.913728Z",
      "apogee_km": 754.1516124492991,
      "perigee_km": 573.1995627482902,
      "latitude_deg": -6.30080943539275e-05,
      "longitude_deg": 170.48623724071373,
      "height_km": 590.934978548478,
      "semi_major_axis_km": 7041.812587598794,
      "eccentricity": 0.0128484,
      "inclination_deg": 97.6552,
      "raan_deg": 296.1479,
      "arg_perigee_deg": 326.5539,
      "mean_anomaly_deg": 32.7599,
      "mean_motion_rev_day": 14.69183588
    },
    {
      "epoch": "2026-04-01T20:16:56.610624Z",
      "apogee_km": 754.1057621905074,
      "perigee_km": 573.2244004875683,
      "latitude_deg": -1.4797594712991585e-06,
      "longitude_deg": 162.66744260119464,
      "height_km": 593.8903180252457,
      "semi_major_axis_km": 7041.802081339038,
      "eccentricity": 0.0128434,
      "inclination_deg": 97.6548,
      "raan_deg": 297.1056,
      "arg_perigee_deg": 323.2599,
      "mean_anomaly_deg": 35.9854,
      "mean_motion_rev_day": 14.69186876
    },
    {
      "epoch": "2026-04-02T19:09:56.732256Z",
      "apogee_km": 754.0108755484207,
      "perigee_km": 573.2890466217405,
      "latitude_deg": 1.146724365372153e-05,
      "longitude_deg": 179.3712483254989,
      "height_km": 596.901450609177,
      "semi_major_axis_km": 7041.78696108508,
      "eccentricity": 0.0128321,
      "inclination_deg": 97.6543,
      "raan_deg": 297.9997,
      "arg_perigee_deg": 320.1755,
      "mean_anomaly_deg": 39.0087,
      "mean_motion_rev_day": 14.69191608
    }
  ]
}